CORVUS BC4              
1 43767U 18099K   26185.85168801  .00007076  00000+0  40814-3 0  9992
2 43767  97.4053 228.3152 0006679 306.0328  54.0284 15.12645301415078
M2 PATHFINDER           
1 45727U 20037E   26186.00173335  .00003839  00000+0  27628-3 0  9992
2 45727  97.8155  17.4336 0013077  93.1904 267.0818 15.04764813328172
NETSAT-4                
1 46504U 20068U   26186.01025277  .00029043  00000+0  62714-3 0  9992
2 46504  97.8603 195.6904 0003621 237.0556 123.0343 15.44492204318528
NETSAT-3                
1 46505U 20068V   26185.77071094  .00037003  00000+0  82963-3 0  9996
2 46505  97.8655 193.6261 0002927 264.4005  95.6908 15.43325214318392
NETSAT-1                
1 46506U 20068W   26185.99889255  .00020246  00000+0  59653-3 0  9998
2 46506  97.8751 187.9908 0002857 323.9360  36.1689 15.35072270318030
NETSAT-2                
1 46507U 20068X   26185.96003126  .00038851  00000+0  77363-3 0  9990
2 46507  97.8617 195.5973 0001366 281.9730  78.1365 15.46814843318485
GREENCUBE (IO-117)      
1 53109U 22080E   26186.23812327 -.00000003  00000+0  00000+0 0  9993
2 53109  70.1429 291.9681 0008934 285.8124  74.1550  6.42583233 93227
SITRO-AIS 5 (KATYS)     
1 57176U 23091L   26186.19028822  .00021055  00000+0  72721-3 0  9990
2 57176  97.5045 250.2650 0011673  46.4091 313.8116 15.29902353167095
SITRO-AIS 6 (CHIRKIN)   
1 57192U 23091AC  26186.27670739  .00016458  00000+0  63499-3 0  9990
2 57192  97.5052 249.3744 0012170  49.7647 310.4654 15.26305051167044
SITRO-AIS 8 (ANOKHIN)   
1 57193U 23091AD  26186.17542906  .00024786  00000+0  78534-3 0  9993
2 57193  97.5041 251.9129 0010552  42.7337 317.4723 15.32663937167209
SITRO-AIS 7 (FARTUSHNIY)
1 57194U 23091AE  26186.28359866  .00015534  00000+0  60540-3 0  9996
2 57194  97.5049 249.1968 0012116  50.8325 309.3987 15.25983072167033
SITRO-AIS 10 (BURDAEV)  
1 57199U 23091AK  26186.19526881  .00033856  00000+0  86593-3 0  9997
2 57199  97.5067 257.1756 0005840  20.9374 339.2109 15.39345521167539
SITRO-AIS 9 (SHCHUKIN)  
1 57201U 23091AM  26186.22749092  .00032536  00000+0  84619-3 0  9997
2 57201  97.5066 256.9241 0006124  20.7899 339.3594 15.38838505167520
SITRO-AIS 12 (SMIRENNIY)
1 57204U 23091AQ  26186.14966418  .00033500  00000+0  86302-3 0  9997
2 57204  97.5078 257.3229 0005624  15.1592 344.9821 15.39127716167531
SITRO-AIS 11 (SHEFFER)  
1 57208U 23091AU  26186.28805069  .00031458  00000+0  79910-3 0  9997
2 57208  97.5076 257.7227 0005499  13.9565 346.1831 15.39572275167574
SITRO-AIS 25            
1 59066U 24039R   26186.26447889  .00004144  00000+0  32458-3 0  9992
2 59066  95.3897 247.5152 0142191 264.7044  93.7945 14.93608054127423
SITRO-AIS 26            
1 59067U 24039S   26186.26833102  .00003660  00000+0  28836-3 0  9997
2 59067  95.3897 247.4118 0142551 265.3054  93.1880 14.93400840127417
SITRO-AIS 27            
1 59068U 24039T   26186.30048050  .00004133  00000+0  32222-3 0  9993
2 59068  95.3892 247.7141 0141789 263.7278  94.7782 14.93819976127449
SITRO-AIS 28            
1 59071U 24039U   26186.27751405  .00003491  00000+0  27251-3 0  9990
2 59071  95.3899 247.7467 0141582 263.6666  94.8419 14.93856602127447
GRBBETA                 
1 60237U 24128C   26185.34249703  .00004844  00000+0  33299-3 0  9997
2 60237  61.9890 156.0715 0038478 138.2511 222.1530 15.06749901108858
OOV-CUBE (TUBSAT-30)    
1 60240U 24128F   26186.08717039  .00003194  00000+0  24825-3 0  9997
2 60240  61.9939 163.1528 0042380 137.7206 222.7166 15.02845362108809
ROBUSTA-3A (MEDITERRAN*)
1 60243U 24128J   26185.86130872  .00012597  00000+0  73037-3 0  9995
2 60243  61.9859 145.7327 0039320 131.4239 229.0246 15.11878334109099
LASARSAT                
1 62391U 24247Q   26185.99333649  .00059622  00000+0  11319-2 0  9998
2 62391  44.9731 162.0756 0006381  90.7609 269.4013 15.47503950 86072
CROCUBE                 
1 62394U 24247T   26185.96858400  .00069895  00000+0  12319-2 0  9999
2 62394  44.9702 159.2468 0006338  96.8573 263.3039 15.49564036 86109
FORESAIL-1 PRIME        
1 66778U 25276DS  26186.18066402  .00007870  00000+0  38048-3 0  9993
2 66778  97.4189 259.1235 0003564  66.2467 293.9142 15.18875849 33136
KNACKSAT-2              
1 67683U 98067XZ  26186.08645847  .00070784  00000+0  80434-3 0  9992
2 67683  51.6258 204.3384 0008324 292.4165  67.5946 15.61628569 23077
