OBJECT_NAME,OBJECT_ID,EPOCH,MEAN_MOTION,ECCENTRICITY,INCLINATION,RA_OF_ASC_NODE,ARG_OF_PERICENTER,MEAN_ANOMALY,EPHEMERIS_TYPE,CLASSIFICATION_TYPE,NORAD_CAT_ID,ELEMENT_SET_NO,REV_AT_EPOCH,BSTAR,MEAN_MOTION_DOT,MEAN_MOTION_DDOT
CORVUS BC4,2018-099K,2026-07-04T20:26:25.844064,15.12645301,.0006679,97.4053,228.3152,306.0328,54.0284,0,U,43767,999,41507,.40813864E-3,.7076E-4,0
M2 PATHFINDER,2020-037E,2026-07-05T00:02:29.761440,15.04764813,.00130773,97.8155,17.4336,93.1904,267.0818,0,U,45727,999,32817,.27627761E-3,.3839E-4,0
NETSAT-4,2020-068U,2026-07-05T00:14:45.839328,15.44492204,.00036211,97.8603,195.6904,237.0556,123.0343,0,U,46504,999,31852,.6271412E-3,.29043E-3,0
NETSAT-3,2020-068V,2026-07-04T18:29:49.425216,15.43325214,.00029275,97.8655,193.6261,264.4005,95.6908,0,U,46505,999,31839,.82963113E-3,.37003E-3,0
NETSAT-1,2020-068W,2026-07-04T23:58:24.316320,15.35072270,.00028576,97.8751,187.9908,323.9360,36.1689,0,U,46506,999,31803,.59652874E-3,.20246E-3,0
NETSAT-2,2020-068X,2026-07-04T23:02:26.700864,15.46814843,.00013668,97.8617,195.5973,281.9730,78.1365,0,U,46507,999,31848,.7736263E-3,.38851E-3,0
GREENCUBE (IO-117),2022-080E,2026-07-05T05:42:53.850528,6.42583233,.00089348,70.1429,291.9681,285.8124,74.1550,0,U,53109,999,9322,0,-.3E-7,0
SITRO-AIS 5 (KATYS),2023-091L,2026-07-05T04:34:00.902208,15.29902353,.0011673,97.5045,250.2650,46.4091,313.8116,0,U,57176,999,16709,.7272066E-3,.21055E-3,0
SITRO-AIS 6 (CHIRKIN),2023-091AC,2026-07-05T06:38:27.518496,15.26305051,.00121707,97.5052,249.3744,49.7647,310.4654,0,U,57192,999,16704,.63498727E-3,.16458E-3,0
SITRO-AIS 8 (ANOKHIN),2023-091AD,2026-07-05T04:12:37.070784,15.32663937,.00105528,97.5041,251.9129,42.7337,317.4723,0,U,57193,999,16720,.78534159E-3,.24786E-3,0
SITRO-AIS 7 (FARTUSHNIY),2023-091AE,2026-07-05T06:48:22.924224,15.25983072,.00121168,97.5049,249.1968,50.8325,309.3987,0,U,57194,999,16703,.60539725E-3,.15534E-3,0
SITRO-AIS 10 (BURDAEV),2023-091AK,2026-07-05T04:41:11.225184,15.39345521,.00058402,97.5067,257.1756,20.9374,339.2109,0,U,57199,999,16753,.86593377E-3,.33856E-3,0
SITRO-AIS 9 (SHCHUKIN),2023-091AM,2026-07-05T05:27:35.215488,15.38838505,.00061243,97.5066,256.9241,20.7899,339.3594,0,U,57201,999,16752,.84619464E-3,.32536E-3,0
SITRO-AIS 12 (SMIRENNIY),2023-091AQ,2026-07-05T03:35:30.985152,15.39127716,.00056249,97.5078,257.3229,15.1592,344.9821,0,U,57204,999,16753,.86301588E-3,.335E-3,0
SITRO-AIS 11 (SHEFFER),2023-091AU,2026-07-05T06:54:47.579616,15.39572275,.0005499,97.5076,257.7227,13.9565,346.1831,0,U,57208,999,16757,.7990996E-3,.31458E-3,0
SITRO-AIS 25,2024-039R,2026-07-05T06:20:50.976096,14.93608054,.0142191,95.3897,247.5152,264.7044,93.7945,0,U,59066,999,12742,.32457915E-3,.4144E-4,0
SITRO-AIS 26,2024-039S,2026-07-05T06:26:23.800128,14.93400840,.01425519,95.3897,247.4118,265.3054,93.1880,0,U,59067,999,12741,.28836457E-3,.366E-4,0
SITRO-AIS 27,2024-039T,2026-07-05T07:12:41.515200,14.93819976,.01417895,95.3892,247.7141,263.7278,94.7782,0,U,59068,999,12744,.32222068E-3,.4133E-4,0
SITRO-AIS 28,2024-039U,2026-07-05T06:39:37.213920,14.93856602,.01415828,95.3899,247.7467,263.6666,94.8419,0,U,59071,999,12744,.27250919E-3,.3491E-4,0
GRBBETA,2024-128C,2026-07-04T08:13:11.743392,15.06749901,.00384788,61.9890,156.0715,138.2511,222.1530,0,U,60237,999,10885,.33299077E-3,.4844E-4,0
OOV-CUBE (TUBSAT-30),2024-128F,2026-07-05T02:05:31.521696,15.02845362,.00423803,61.9939,163.1528,137.7206,222.7166,0,U,60240,999,10880,.24824533E-3,.3194E-4,0
ROBUSTA-3A (MEDITERRANEE),2024-128J,2026-07-04T20:40:17.073408,15.11878334,.00393204,61.9859,145.7327,131.4239,229.0246,0,U,60243,999,10909,.73036519E-3,.12597E-3,0
LASARSAT,2024-247Q,2026-07-04T23:50:24.272736,15.47503950,.00063818,44.9731,162.0756,90.7609,269.4013,0,U,62391,999,8607,.11319372E-2,.59622E-3,0
CROCUBE,2024-247T,2026-07-04T23:14:45.657600,15.49564036,.00063381,44.9702,159.2468,96.8573,263.3039,0,U,62394,999,8610,.12319432E-2,.69895E-3,0
FORESAIL-1 PRIME,2025-276DS,2026-07-05T04:20:09.371328,15.18875849,.00035648,97.4189,259.1235,66.2467,293.9142,0,U,66778,999,3313,.38047913E-3,.787E-4,0
KNACKSAT-2,1998-067XZ,2026-07-05T02:04:30.011808,15.61628569,.00083242,51.6258,204.3384,292.4165,67.5946,0,U,67683,999,2307,.80434196E-3,.70784E-3,0
